SNAP-3 JIMI             
1 40975U 15058M   26068.63164788  .00007303  00000+0  51665-3 0  9997
2 40975  64.7662 174.4840 0105534  96.5110 264.8035 15.01135599 99270
STARLINK-5732           
1 55572U 23020D   26068.20712219 -.00001166  00000+0 -71305-4 0  9992
2 55572  43.0025   7.5285 0000981 258.2530 101.8203 15.02530703168848
